{
  "norad_id": 41859,
  "name": "GSAT0207 (GALILEO 15)",
  "history": [
    {
      "epoch": "2026-03-27T19:07:26.359968Z",
      "apogee_km": 23238.999746756916,
      "perigee_km": 23205.320528673623,
      "latitude_deg": -3.410564047045393e-05,
      "longitude_deg": -8.748048579368932,
      "height_km": 23211.10900732086,
      "semi_major_axis_km": 29600.297137715268,
      "eccentricity": 0.0005689,
      "inclination_deg": 55.446,
      "raan_deg": 103.3365,
      "arg_perigee_deg": 312.3228,
      "mean_anomaly_deg": 47.6802,
      "mean_motion_rev_day": 1.70474198
    }
  ]
}